NORAD_CAT_ID,OBJECT_NAME,OBJECT_TYPE,EPOCH,MEAN_MOTION,ECCENTRICITY,INCLINATION,RA_OF_ASC_NODE,ARG_OF_PERICENTER,MEAN_ANOMALY,BSTAR,MEAN_MOTION_DOT,MEAN_MOTION_DDOT,TLE_LINE0,TLE_LINE1,TLE_LINE2,SEMIMAJOR_AXIS,PERIOD,APOGEE,PERIGEE,DECAYED
53836.0,STARLINK-4778,PAYLOAD,2024-05-29 18:26:43,15.08838579,0.0001201,53.2189,327.4452,95.9879,264.125,1.1674e-05,-1.02e-06,0.0,0 STARLINK-4778,1 53836U 22114U   24150.76855398 -.00000102  00000-0  11674-4 0  9995,2 53836  53.2189 327.4452 0001201  95.9879 264.1250 15.08838579 94460,6917.885,95.438,540.581,538.919,0.0
53836.0,STARLINK-4778,PAYLOAD,2024-05-29 21:37:29,15.08840799,0.0001152,53.2184,326.8491,91.3983,268.7141,3.1496e-05,2.13e-06,0.0,0 STARLINK-4778,1 53836U 22114U   24150.90103244  .00000213  00000-0  31496-4 0  9993,2 53836  53.2184 326.8491 0001152  91.3983 268.7141 15.08840799 95021,6917.878,95.438,540.54,538.946,0.0
53836.0,STARLINK-4778,PAYLOAD,2024-05-30 11:55:57,15.08843298,0.0001137,53.2182,324.174,82.5431,277.5691,7.8505e-05,9.62e-06,0.0,0 STARLINK-4778,1 53836U 22114U   24151.49718982  .00000962  00000-0  78505-4 0  9992,2 53836  53.2182 324.1740 0001137  82.5431 277.5691 15.08843298 95115,6917.87,95.437,540.522,538.949,0.0
53836.0,STARLINK-4778,PAYLOAD,2024-05-30 19:52:52,15.08850308,0.0001203,53.2187,322.6874,86.782,273.3309,0.00013344,1.837e-05,0.0,0 STARLINK-4778,1 53836U 22114U   24151.82838319  .00001837  00000-0  13344-3 0  9997,2 53836  53.2187 322.6874 0001203  86.7820 273.3309 15.08850308 94628,6917.849,95.437,540.546,538.882,0.0
53836.0,STARLINK-4778,PAYLOAD,2024-05-31 14:57:30,15.08839947,0.0001288,53.2196,319.1215,96.6643,263.4496,8.8004e-05,1.113e-05,0.0,0 STARLINK-4778,1 53836U 22114U   24152.62327128  .00001113  00000-0  88004-4 0  9990,2 53836  53.2196 319.1215 0001288  96.6643 263.4496 15.08839947 95280,6917.881,95.438,540.637,538.855,0.0
53836.0,STARLINK-4778,PAYLOAD,2024-05-31 18:08:16,15.08842554,0.0001192,53.2196,318.5241,95.7122,264.4006,0.00015236,2.138e-05,0.0,0 STARLINK-4778,1 53836U 22114U   24152.75574865  .00002138  00000-0  15236-3 0  9990,2 53836  53.2196 318.5241 0001192  95.7122 264.4006 15.08842554 94766,6917.873,95.437,540.562,538.913,0.0
53836.0,STARLINK-4778,PAYLOAD,2024-05-31 21:19:02,15.08845821,0.0001222,53.2206,317.9289,96.9041,263.2091,0.00015994,2.259e-05,0.0,0 STARLINK-4778,1 53836U 22114U   24152.88822459  .00002259  00000-0  15994-3 0  9994,2 53836  53.2206 317.9289 0001222  96.9041 263.2091 15.08845821 95324,6917.863,95.437,540.573,538.882,0.0
53836.0,STARLINK-4778,PAYLOAD,2024-06-01 14:48:18,15.08833996,0.0001421,53.2204,314.6579,103.2307,256.8843,-6.4314e-05,-1.311e-05,0.0,0 STARLINK-4778,1 53836U 22114U   24153.61687985 -.00001311  00000-0 -64314-4 0  9990,2 53836  53.2204 314.6579 0001421 103.2307 256.8843 15.08833996 95431,6917.899,95.438,540.747,538.781,0.0
53836.0,STARLINK-4778,PAYLOAD,2024-06-01 17:59:04,15.08834653,0.0001316,53.2197,314.065,99.0096,261.1045,-4.7156e-05,-1.038e-05,0.0,0 STARLINK-4778,1 53836U 22114U   24153.74935953 -.00001038  00000-0 -47156-4 0  9996,2 53836  53.2197 314.0650 0001316  99.0096 261.1045 15.08834653 94912,6917.897,95.438,540.672,538.851,0.0
53836.0,STARLINK-4778,PAYLOAD,2024-06-02 03:31:23,15.08838746,0.0001316,53.22,312.2807,100.8719,259.2422,-4.3013e-05,-9.72e-06,0.0,0 STARLINK-4778,1 53836U 22114U   24154.14679764 -.00000972  00000-0 -43013-4 0  9990,2 53836  53.2200 312.2807 0001316 100.8719 259.2422 15.08838746 95515,6917.884,95.438,540.66,538.839,0.0
53836.0,STARLINK-4778,PAYLOAD,2024-06-02 19:25:14,15.08843296,0.0001284,53.2201,309.3074,101.9141,258.1996,6.2734e-05,7.11e-06,0.0,0 STARLINK-4778,1 53836U 22114U   24154.80919427  .00000711  00000-0  62734-4 0  9996,2 53836  53.2201 309.3074 0001284 101.9141 258.1996 15.08843296 95075,6917.87,95.437,540.624,538.847,0.0
53836.0,STARLINK-4778,PAYLOAD,2024-06-03 03:22:10,15.08842826,0.0001011,53.2182,307.8176,83.4808,276.6299,0.00010239,1.342e-05,0.0,0 STARLINK-4778,1 53836U 22114U   24155.14039412  .00001342  00000-0  10239-3 0  9994,2 53836  53.2182 307.8176 0001011  83.4808 276.6299 15.08842826 95665,6917.872,95.437,540.436,539.037,0.0
53836.0,STARLINK-4778,PAYLOAD,2024-06-03 16:05:16,15.08815036,9.8e-05,53.2175,305.4378,86.7146,273.3958,0.00047356,7.252e-05,0.0,0 STARLINK-4778,1 53836U 22114U   24155.67032987  .00007252  00000-0  47356-3 0  9998,2 53836  53.2175 305.4378 0000980  86.7146 273.3958 15.08815036 95209,6917.957,95.439,540.5,539.144,0.0
53836.0,STARLINK-4778,PAYLOAD,2024-06-04 03:12:57,15.08842087,0.0001169,53.2188,303.357,80.5657,279.5467,0.0001494,2.091e-05,0.0,0 STARLINK-4778,1 53836U 22114U   24156.13399740  .00002091  00000-0  14940-3 0  9992,2 53836  53.2188 303.3570 0001169  80.5657 279.5467 15.08842087 95279,6917.874,95.437,540.548,538.93,0.0
53836.0,STARLINK-4778,PAYLOAD,2024-06-04 09:34:30,15.08840863,0.0001576,53.2144,302.1658,86.5208,273.5964,8.7108e-05,1.099e-05,0.0,0 STARLINK-4778,1 53836U 22114U   24156.39896087  .00001099  00000-0  87108-4 0  9990,2 53836  53.2144 302.1658 0001576  86.5208 273.5964 15.08840863 95855,6917.878,95.438,540.833,538.652,0.0
53836.0,STARLINK-4778,PAYLOAD,2024-06-04 19:06:48,15.08842904,0.0001501,53.2116,300.3809,86.8898,273.2266,0.000116,1.559e-05,0.0,0 STARLINK-4778,1 53836U 22114U   24156.79639843  .00001559  00000-0  11600-3 0  9993,2 53836  53.2116 300.3809 0001501  86.8898 273.2266 15.08842904 95915,6917.872,95.437,540.775,538.698,0.0
53836.0,STARLINK-4778,PAYLOAD,2024-06-05 03:03:44,15.08838944,0.0001894,53.2116,298.8945,91.6859,268.435,6.3072e-05,7.16e-06,0.0,0 STARLINK-4778,1 53836U 22114U   24157.12760297  .00000716  00000-0  63072-4 0  9994,2 53836  53.2116 298.8945 0001894  91.6859 268.4350 15.08838944 95428,6917.884,95.438,541.059,538.438,0.0
53836.0,STARLINK-4778,PAYLOAD,2024-06-05 12:36:03,15.08839009,0.0001448,53.2148,297.1102,94.9163,265.1995,9.3137e-05,1.195e-05,0.0,0 STARLINK-4778,1 53836U 22114U   24157.52504128  .00001195  00000-0  93137-4 0  9994,2 53836  53.2148 297.1102 0001448  94.9163 265.1995 15.08839009 96028,6917.883,95.438,540.75,538.747,0.0
53836.0,STARLINK-4778,PAYLOAD,2024-06-05 18:57:36,15.08841389,0.0001692,53.2152,295.9197,101.0059,259.1124,0.00017557,2.507e-05,0.0,0 STARLINK-4778,1 53836U 22114U   24157.79000077  .00002507  00000-0  17557-3 0  9996,2 53836  53.2152 295.9197 0001692 101.0059 259.1124 15.08841389 96063,6917.876,95.437,540.912,538.571,0.0
53836.0,STARLINK-4778,PAYLOAD,2024-06-06 12:26:50,15.088392,0.0001675,53.215,292.6475,105.5661,254.5516,0.00012484,1.699e-05,0.0,0 STARLINK-4778,1 53836U 22114U   24158.51864276  .00001699  00000-0  12484-3 0  9991,2 53836  53.2150 292.6475 0001675 105.5661 254.5516 15.08839200 95638,6917.883,95.438,540.907,538.589,0.0
53836.0,STARLINK-4778,PAYLOAD,2024-06-06 15:37:36,15.08843274,0.0001344,53.217,292.0544,85.3059,274.8086,0.00021714,3.17e-05,0.0,0 STARLINK-4778,1 53836U 22114U   24158.65112181  .00003170  00000-0  21714-3 0  9999,2 53836  53.2170 292.0544 0001344  85.3059 274.8086 15.08843274 96195,6917.87,95.437,540.665,538.806,0.0
53836.0,STARLINK-4778,PAYLOAD,2024-06-07 15:28:23,15.08850034,0.0001175,53.2161,287.5952,81.8354,278.2771,0.00022928,3.364e-05,0.0,0 STARLINK-4778,1 53836U 22114U   24159.64471720  .00003364  00000-0  22928-3 0  9999,2 53836  53.2161 287.5952 0001175  81.8354 278.2771 15.08850034 96346,6917.85,95.437,540.528,538.902,0.0
53836.0,STARLINK-4778,PAYLOAD,2024-06-08 15:19:09,15.08862578,0.0001018,53.2164,283.135,66.3871,293.7228,0.00029234,4.371e-05,0.0,0 STARLINK-4778,1 53836U 22114U   24160.63830674  .00004371  00000-0  29234-3 0  9993,2 53836  53.2164 283.1350 0001018  66.3871 293.7228 15.08862578 96492,6917.811,95.436,540.381,538.972,0.0
53836.0,STARLINK-4778,PAYLOAD,2024-06-08 18:29:55,15.08864253,0.0001041,53.2164,282.5401,67.125,292.9852,0.00029535,4.419e-05,0.0,0 STARLINK-4778,1 53836U 22114U   24160.77078407  .00004419  00000-0  29535-3 0  9993,2 53836  53.2164 282.5401 0001041  67.1250 292.9852 15.08864253 95976,6917.806,95.436,540.391,538.951,0.0
53836.0,STARLINK-4778,PAYLOAD,2024-06-09 11:59:11,15.08829202,0.0001811,53.216,279.2687,116.1011,244.0167,-0.00027239,-4.619e-05,0.0,0 STARLINK-4778,1 53836U 22114U   24161.49944257 -.00004619  00000-0 -27239-3 0  9991,2 53836  53.2160 279.2687 0001811 116.1011 244.0167 15.08829202 96081,6917.913,95.438,541.031,538.526,0.0
53836.0,STARLINK-4778,PAYLOAD,2024-06-09 15:09:58,15.08828724,9.79e-05,53.2168,278.6773,100.6641,259.4462,-0.00021144,-3.65e-05,0.0,0 STARLINK-4778,1 53836U 22114U   24161.63192422 -.00003650  00000-0 -21144-3 0  9999,2 53836  53.2168 278.6773 0000979 100.6641 259.4462 15.08828724 96647,6917.915,95.438,540.457,539.103,0.0
53836.0,STARLINK-4778,PAYLOAD,2024-06-10 13:25:22,15.08846134,0.0001208,53.2176,274.5148,102.9685,257.1443,0.00049482,7.597e-05,0.0,0 STARLINK-4778,1 53836U 22114U   24162.55928367  .00007597  00000-0  49482-3 0  9993,2 53836  53.2176 274.5148 0001208 102.9685 257.1443 15.08846134 96241,6917.862,95.437,540.562,538.891,0.0
53836.0,STARLINK-4778,PAYLOAD,2024-06-10 15:00:45,15.08850895,0.0001205,53.2176,274.2176,105.167,254.9456,0.00095944,0.00015019,0.0,0 STARLINK-4778,1 53836U 22114U   24162.62552497  .00015019  00000-0  95944-3 0  9990,2 53836  53.2176 274.2176 0001205 105.1670 254.9456 15.08850895 96793,6917.847,95.437,540.546,538.878,0.0
53836.0,STARLINK-4778,PAYLOAD,2024-06-11 13:16:09,15.08856794,0.0001013,53.2167,270.0548,88.2231,271.8877,0.00082932,0.00012941,0.0,0 STARLINK-4778,1 53836U 22114U   24163.55288292  .00012941  00000-0  82932-3 0  9996,2 53836  53.2167 270.0548 0001013  88.2231 271.8877 15.08856794 96936,6917.829,95.436,540.395,538.993,0.0
53836.0,STARLINK-4778,PAYLOAD,2024-06-12 06:45:23,15.08839265,0.0001159,53.2151,266.785,86.5957,273.5167,0.00025358,3.75e-05,0.0,0 STARLINK-4778,1 53836U 22114U   24164.28152678  .00003750  00000-0  25358-3 0  9992,2 53836  53.2151 266.7850 0001159  86.5957 273.5167 15.08839265 96502,6917.883,95.438,540.549,538.946,0.0
